GPS BIIF-7  (PRN 09)    
1 40105U 14045A   26087.28045197  .00000041  00000+0  00000+0 0  9996
2 40105  55.2986  91.6863 0031377 119.9296 240.4172  2.00553048 84456
GPS BIIF-8  (PRN 03)    
1 40294U 14068A   26086.65813022 -.00000070  00000+0  00000+0 0  9993
2 40294  56.9354  34.0960 0063895  68.2397 292.4250  2.00571381 83575
GPS BIIF-9  (PRN 26)    
1 40534U 15013A   26086.29205244 -.00000029  00000+0  00000+0 0  9996
2 40534  53.1810 207.5638 0108792  39.9071 320.8617  2.00556171 80184
GPS BIIF-10 (PRN 08)    
1 40730U 15033A   26087.94791698 -.00000008  00000+0  00000+0 0  9999
2 40730  54.0465 270.3923 0114869  29.4809 331.1549  2.00560282 78384
GPS BIIF-11 (PRN 10)    
1 41019U 15062A   26086.51063787 -.00000070  00000+0  00000+0 0  9994
2 41019  56.9083  33.9579 0111316 231.5995 127.3861  2.00566923 76195
GPS BIIF-12 (PRN 32)    
1 41328U 16007A   26087.59419842  .00000043  00000+0  00000+0 0  9992
2 41328  55.4724  92.6531 0095885 246.6020 112.4215  2.00555500 74221
GPS BIII-1  (PRN 04)    
1 43873U 18109A   26087.26453723  .00000045  00000+0  00000+0 0  9996
2 43873  55.6315  95.3771 0037867 198.7638 175.8510  2.00557717 53455
GPS BIII-2  (PRN 18)    
1 44506U 19056A   26086.66222638 -.00000084  00000+0  00000+0 0  9998
2 44506  55.6735 334.3842 0058566 197.7684   3.1076  2.00568459 48436
GPS BIII-3  (PRN 23)    
1 45854U 20041A   26087.70647736 -.00000082  00000+0  00000+0 0  9995
2 45854  56.6214  32.0661 0061658 205.2530 331.0390  2.00560091 42427
GPS BIII-4  (PRN 14)    
1 46826U 20078A   26087.99489457 -.00000042  00000+0  00000+0 0  9996
2 46826  53.9956 214.0294 0069596 204.9521 153.5047  2.00565116 39895
GPS BIII-5  (PRN 11)    
1 48859U 21054A   26085.92660022 -.00000086  00000+0  00000+0 0  9997
2 48859  55.2106 335.7679 0023833 231.2619 258.6260  2.00573998 35109
GPS BIII-6  (PRN 28)    
1 55268U 23009A   26087.18378093  .00000000  00000+0  00000+0 0  9990
2 55268  55.1104 151.7031 0005380 326.6502  28.0595  2.00547447 23616
GPS BIII-7  (PRN 01)    
1 62339U 24242A   26084.32879528 -.00000085  00000+0  00000+0 0  9993
2 62339  54.8829 337.5830 0016358 358.9940 177.9462  2.00569753  9575
GPS BIII-8  (PRN 21)    
1 64202U 25116A   26087.81390277 -.00000080  00000+0  00000+0 0  9996
2 64202  55.1842  34.3646 0008966 330.8454  26.7176  2.00551421  6255
GPS BIII-9  (PRN 20)    
1 67588U 26017A   26085.93319859  .00000035  00000+0  00000+0 0  9994
2 67588  55.0345  92.0545 0024556 249.5065 110.2628  2.00553557429968
